NOAA 16 DEB             
1 42428U 00055TY  24124.53973517  .00002455  00000+0  11132-2 0  9998
2 42428  98.8963 242.1589 0024816 309.7492  50.1499 14.22683584380373
